CCSDS_OMM_VERS = 2.0
CREATION_DATE  = 
ORIGINATOR     = 

OBJECT_NAME    = SL-16 R/B
OBJECT_ID      = 1998-043G
CENTER_NAME    = EARTH
REF_FRAME      = TEME
TIME_SYSTEM    = UTC
MEAN_ELEMENT_THEORY = SGP/SGP4

EPOCH          = 2026-02-04T11:22:39.105408
MEAN_MOTION    = 14.26041409
ECCENTRICITY   = .0010879
INCLINATION    = 98.8200
RA_OF_ASC_NODE = 348.6139
ARG_OF_PERICENTER = 108.6230
MEAN_ANOMALY   = 251.6131

EPHEMERIS_TYPE = 0
CLASSIFICATION_TYPE = U
NORAD_CAT_ID   = 25400
ELEMENT_SET_NO = 999
REV_AT_EPOCH   = 43425
BSTAR          = .52487E-4
MEAN_MOTION_DOT = .8E-6
MEAN_MOTION_DDOT = 0

CCSDS_OMM_VERS = 2.0
CREATION_DATE  = 
ORIGINATOR     = 

OBJECT_NAME    = SL-16 R/B
OBJECT_ID      = 1998-045B
CENTER_NAME    = EARTH
REF_FRAME      = TEME
TIME_SYSTEM    = UTC
MEAN_ELEMENT_THEORY = SGP/SGP4

EPOCH          = 2026-02-04T02:14:00.377088
MEAN_MOTION    = 14.16185623
ECCENTRICITY   = .00051749
INCLINATION    = 71.0090
RA_OF_ASC_NODE = 252.2273
ARG_OF_PERICENTER = 71.1450
MEAN_ANOMALY   = 289.0234

EPHEMERIS_TYPE = 0
CLASSIFICATION_TYPE = U
NORAD_CAT_ID   = 25407
ELEMENT_SET_NO = 999
REV_AT_EPOCH   = 42234
BSTAR          = -.89401824E-4
MEAN_MOTION_DOT = -.225E-5
MEAN_MOTION_DDOT = 0

CCSDS_OMM_VERS = 2.0
CREATION_DATE  = 
ORIGINATOR     = 

OBJECT_NAME    = ISS (ZARYA)
OBJECT_ID      = 1998-067A
CENTER_NAME    = EARTH
REF_FRAME      = TEME
TIME_SYSTEM    = UTC
MEAN_ELEMENT_THEORY = SGP/SGP4

EPOCH          = 2026-02-04T08:10:12.072000
MEAN_MOTION    = 15.48385070
ECCENTRICITY   = .0011114
INCLINATION    = 51.6311
RA_OF_ASC_NODE = 237.2151
ARG_OF_PERICENTER = 63.0955
MEAN_ANOMALY   = 297.1168

EPHEMERIS_TYPE = 0
CLASSIFICATION_TYPE = U
NORAD_CAT_ID   = 25544
ELEMENT_SET_NO = 999
REV_AT_EPOCH   = 55116
BSTAR          = .19091E-3
MEAN_MOTION_DOT = .9876E-4
MEAN_MOTION_DDOT = 0

CCSDS_OMM_VERS = 2.0
CREATION_DATE  = 
ORIGINATOR     = 

OBJECT_NAME    = CZ-4B R/B
OBJECT_ID      = 1999-025C
CENTER_NAME    = EARTH
REF_FRAME      = TEME
TIME_SYSTEM    = UTC
MEAN_ELEMENT_THEORY = SGP/SGP4

EPOCH          = 2026-02-04T08:33:42.208128
MEAN_MOTION    = 14.18258513
ECCENTRICITY   = .0038189
INCLINATION    = 98.6691
RA_OF_ASC_NODE = 80.4179
ARG_OF_PERICENTER = 81.2331
MEAN_ANOMALY   = 290.0075

EPHEMERIS_TYPE = 0
CLASSIFICATION_TYPE = U
NORAD_CAT_ID   = 25732
ELEMENT_SET_NO = 999
REV_AT_EPOCH   = 38344
BSTAR          = .57144E-4
MEAN_MOTION_DOT = .76E-6
MEAN_MOTION_DDOT = 0

CCSDS_OMM_VERS = 2.0
CREATION_DATE  = 
ORIGINATOR     = 

OBJECT_NAME    = OKEAN-O
OBJECT_ID      = 1999-039A
CENTER_NAME    = EARTH
REF_FRAME      = TEME
TIME_SYSTEM    = UTC
MEAN_ELEMENT_THEORY = SGP/SGP4

EPOCH          = 2026-02-04T09:29:22.304256
MEAN_MOTION    = 14.80278395
ECCENTRICITY   = .000194
INCLINATION    = 97.9513
RA_OF_ASC_NODE = 95.6132
ARG_OF_PERICENTER = 90.0069
MEAN_ANOMALY   = 270.1365

EPHEMERIS_TYPE = 0
CLASSIFICATION_TYPE = U
NORAD_CAT_ID   = 25860
ELEMENT_SET_NO = 999
REV_AT_EPOCH   = 42946
BSTAR          = .11311E-3
MEAN_MOTION_DOT = .809E-5
MEAN_MOTION_DDOT = 0

CCSDS_OMM_VERS = 2.0
CREATION_DATE  = 
ORIGINATOR     = 

OBJECT_NAME    = SL-16 R/B
OBJECT_ID      = 1999-039B
CENTER_NAME    = EARTH
REF_FRAME      = TEME
TIME_SYSTEM    = UTC
MEAN_ELEMENT_THEORY = SGP/SGP4

EPOCH          = 2026-02-04T09:45:43.269984
MEAN_MOTION    = 14.81682831
ECCENTRICITY   = .001498
INCLINATION    = 98.0036
RA_OF_ASC_NODE = 94.5405
ARG_OF_PERICENTER = 10.8716
MEAN_ANOMALY   = 349.2817

EPHEMERIS_TYPE = 0
CLASSIFICATION_TYPE = U
NORAD_CAT_ID   = 25861
ELEMENT_SET_NO = 999
REV_AT_EPOCH   = 43193
BSTAR          = .99375E-4
MEAN_MOTION_DOT = .729E-5
MEAN_MOTION_DDOT = 0

CCSDS_OMM_VERS = 2.0
CREATION_DATE  = 
ORIGINATOR     = 

OBJECT_NAME    = DELTA 2 R/B
OBJECT_ID      = 1999-041E
CENTER_NAME    = EARTH
REF_FRAME      = TEME
TIME_SYSTEM    = UTC
MEAN_ELEMENT_THEORY = SGP/SGP4

EPOCH          = 2026-02-04T10:50:43.481760
MEAN_MOTION    = 14.11697566
ECCENTRICITY   = .0502471
INCLINATION    = 51.7645
RA_OF_ASC_NODE = 74.0088
ARG_OF_PERICENTER = 250.2294
MEAN_ANOMALY   = 104.3802

EPHEMERIS_TYPE = 0
CLASSIFICATION_TYPE = U
NORAD_CAT_ID   = 25876
ELEMENT_SET_NO = 999
REV_AT_EPOCH   = 35833
BSTAR          = .41634E-3
MEAN_MOTION_DOT = .2356E-4
MEAN_MOTION_DDOT = 0

CCSDS_OMM_VERS = 2.0
CREATION_DATE  = 
ORIGINATOR     = 

OBJECT_NAME    = HELIOS 1B
OBJECT_ID      = 1999-064A
CENTER_NAME    = EARTH
REF_FRAME      = TEME
TIME_SYSTEM    = UTC
MEAN_ELEMENT_THEORY = SGP/SGP4

EPOCH          = 2026-02-04T06:49:45.882048
MEAN_MOTION    = 14.87555404
ECCENTRICITY   = .0001856
INCLINATION    = 98.1731
RA_OF_ASC_NODE = 296.5415
ARG_OF_PERICENTER = 120.9836
MEAN_ANOMALY   = 239.1561

EPHEMERIS_TYPE = 0
CLASSIFICATION_TYPE = U
NORAD_CAT_ID   = 25977
ELEMENT_SET_NO = 999
REV_AT_EPOCH   = 68029
BSTAR          = .25354E-3
MEAN_MOTION_DOT = .2243E-4
MEAN_MOTION_DDOT = 0

CCSDS_OMM_VERS = 2.0
CREATION_DATE  = 
ORIGINATOR     = 

OBJECT_NAME    = TERRA
OBJECT_ID      = 1999-068A
CENTER_NAME    = EARTH
REF_FRAME      = TEME
TIME_SYSTEM    = UTC
MEAN_ELEMENT_THEORY = SGP/SGP4

EPOCH          = 2026-02-04T10:34:40.812096
MEAN_MOTION    = 14.60977135
ECCENTRICITY   = .0001007
INCLINATION    = 97.9662
RA_OF_ASC_NODE = 90.1337
ARG_OF_PERICENTER = 303.7210
MEAN_ANOMALY   = 171.9685

EPHEMERIS_TYPE = 0
CLASSIFICATION_TYPE = U
NORAD_CAT_ID   = 25994
ELEMENT_SET_NO = 999
REV_AT_EPOCH   = 39022
BSTAR          = .1189E-3
MEAN_MOTION_DOT = .538E-5
MEAN_MOTION_DDOT = 0

CCSDS_OMM_VERS = 2.0
CREATION_DATE  = 
ORIGINATOR     = 

OBJECT_NAME    = SL-16 R/B
OBJECT_ID      = 2000-006B
CENTER_NAME    = EARTH
REF_FRAME      = TEME
TIME_SYSTEM    = UTC
MEAN_ELEMENT_THEORY = SGP/SGP4

EPOCH          = 2026-02-04T12:34:02.470080
MEAN_MOTION    = 14.15820281
ECCENTRICITY   = .001847
INCLINATION    = 71.0027
RA_OF_ASC_NODE = 167.5717
ARG_OF_PERICENTER = 236.5996
MEAN_ANOMALY   = 123.3360

EPHEMERIS_TYPE = 0
CLASSIFICATION_TYPE = U
NORAD_CAT_ID   = 26070
ELEMENT_SET_NO = 999
REV_AT_EPOCH   = 34386
BSTAR          = .61651E-4
MEAN_MOTION_DOT = .74E-6
MEAN_MOTION_DDOT = 0

CCSDS_OMM_VERS = 2.0
CREATION_DATE  = 
ORIGINATOR     = 

OBJECT_NAME    = TITAN 4B R/B
OBJECT_ID      = 2000-047B
CENTER_NAME    = EARTH
REF_FRAME      = TEME
TIME_SYSTEM    = UTC
MEAN_ELEMENT_THEORY = SGP/SGP4

EPOCH          = 2026-02-04T11:57:03.532320
MEAN_MOTION    = 15.09280368
ECCENTRICITY   = .0036845
INCLINATION    = 67.9898
RA_OF_ASC_NODE = 133.8242
ARG_OF_PERICENTER = 76.4589
MEAN_ANOMALY   = 284.0660

EPHEMERIS_TYPE = 0
CLASSIFICATION_TYPE = U
NORAD_CAT_ID   = 26474
ELEMENT_SET_NO = 999
REV_AT_EPOCH   = 38790
BSTAR          = .27046E-3
MEAN_MOTION_DOT = .4253E-4
MEAN_MOTION_DDOT = 0

CCSDS_OMM_VERS = 2.0
CREATION_DATE  = 
ORIGINATOR     = 

OBJECT_NAME    = ENVISAT
OBJECT_ID      = 2002-009A
CENTER_NAME    = EARTH
REF_FRAME      = TEME
TIME_SYSTEM    = UTC
MEAN_ELEMENT_THEORY = SGP/SGP4

EPOCH          = 2026-02-04T10:55:17.364576
MEAN_MOTION    = 14.39023893
ECCENTRICITY   = .0001299
INCLINATION    = 98.3673
RA_OF_ASC_NODE = 349.8558
ARG_OF_PERICENTER = 91.2461
MEAN_ANOMALY   = 19.4547

EPHEMERIS_TYPE = 0
CLASSIFICATION_TYPE = U
NORAD_CAT_ID   = 27386
ELEMENT_SET_NO = 999
REV_AT_EPOCH   = 25439
BSTAR          = .65471E-4
MEAN_MOTION_DOT = .159E-5
MEAN_MOTION_DDOT = 0

