SL-16 R/B               
1 25400U 98043G   26035.47406372  .00000080  00000+0  52487-4 0  9991
2 25400  98.8200 348.6139 0010879 108.6230 251.6131 14.26041409434257
SL-16 R/B               
1 25407U 98045B   26035.09305992 -.00000225  00000+0 -89402-4 0  9994
2 25407  71.0090 252.2273 0005174  71.1450 289.0234 14.16185623422345
ISS (ZARYA)             
1 25544U 98067A   26035.34041750  .00009876  00000+0  19091-3 0  9992
2 25544  51.6311 237.2151 0011114  63.0955 297.1168 15.48385070551169
CZ-4B R/B               
1 25732U 99025C   26035.35673852  .00000076  00000+0  57144-4 0  9996
2 25732  98.6691  80.4179 0038189  81.2331 290.0075 14.18258513383449
OKEAN-O                 
1 25860U 99039A   26035.39539704  .00000809  00000+0  11311-3 0  9993
2 25860  97.9513  95.6132 0001940  90.0069 270.1365 14.80278395429467
SL-16 R/B               
1 25861U 99039B   26035.40675081  .00000729  00000+0  99375-4 0  9993
2 25861  98.0036  94.5405 0014980  10.8716 349.2817 14.81682831431938
DELTA 2 R/B             
1 25876U 99041E   26035.45189215  .00002356  00000+0  41634-3 0  9998
2 25876  51.7645  74.0088 0502471 250.2294 104.3802 14.11697566358334
HELIOS 1B               
1 25977U 99064A   26035.28455882  .00002243  00000+0  25354-3 0  9998
2 25977  98.1731 296.5415 0001856 120.9836 239.1561 14.87555404680297
TERRA                   
1 25994U 99068A   26035.44075014  .00000538  00000+0  11890-3 0  9999
2 25994  97.9662  90.1337 0001007 303.7210 171.9685 14.60977135390223
SL-16 R/B               
1 26070U 00006B   26035.52363970  .00000074  00000+0  61651-4 0  9995
2 26070  71.0027 167.5717 0018470 236.5996 123.3360 14.15820281343862
TITAN 4B R/B            
1 26474U 00047B   26035.49795755  .00004253  00000+0  27046-3 0  9996
2 26474  67.9898 133.8242 0036845  76.4589 284.0660 15.09280368387905
ENVISAT                 
1 27386U 02009A   26035.45506209  .00000159  00000+0  65471-4 0  9995
2 27386  98.3673 349.8558 0001299  91.2461  19.4547 14.39023893254395
